[{"OBJECT_NAME":"SITRO-AIS 20","OBJECT_ID":"2024-199Z","EPOCH":"2026-03-09T22:53:15.769536","MEAN_MOTION":14.97385198,"ECCENTRICITY":0.00069441,"INCLINATION":97.3309,"RA_OF_ASC_NODE":274.6556,"ARG_OF_PERICENTER":50.5148,"MEAN_ANOMALY":309.6689,"EPHEMERIS_TYPE":0,"CLASSIFICATION_TYPE":"U","NORAD_CAT_ID":61758,"ELEMENT_SET_NO":999,"REV_AT_EPOCH":12028,"BSTAR":0.00032349417,"MEAN_MOTION_DOT":3.708e-5,"MEAN_MOTION_DDOT":0},{"OBJECT_NAME":"ORBCOMM FM01","OBJECT_ID":"1995-017A","EPOCH":"2026-03-09T14:23:39.060960","MEAN_MOTION":14.94627417,"ECCENTRICITY":0.0007397,"INCLINATION":69.9608,"RA_OF_ASC_NODE":130.1442,"ARG_OF_PERICENTER":275.3811,"MEAN_ANOMALY":84.6502,"EPHEMERIS_TYPE":0,"CLASSIFICATION_TYPE":"U","NORAD_CAT_ID":23545,"ELEMENT_SET_NO":999,"REV_AT_EPOCH":65210,"BSTAR":0.00061722,"MEAN_MOTION_DOT":6.616e-5,"MEAN_MOTION_DDOT":0}]
